[Satellite]
VERSION=1.1
NAME=SIRIUS-3
NICKNAME=SIRIUS-3
TLE1=1 26626U 00077A   15053.42893394 -.00000139  00000-0  00000+0 0  9995
TLE2=2 26626  64.5114 356.9963 2687283 269.5552 304.0645  1.00278008 52124
